CTC1_L_00171016-03
1 17530U 22562RS  26070.40833333  .00000000  00000+0  00000-0 0  9994
2 17530  45.0000 180.0000 0000000   0.0000   0.0000 13.89609395    10
CTC1_L_00171016-04
1 17531U 22442FF  26070.40833333  .00000000  00000+0  00000-0 0  9992
2 17531  45.0000 180.0000 0000000   0.0000  90.0000 13.89609395    10
CTC1_L_00171017-01
1 17532U 23893LN  26070.40833333  .00000000  00000+0  00000-0 0  9994
2 17532  45.0000 192.0000 0000000   0.0000 192.0000 13.89609395    17
CTC1_L_00171017-02
1 17533U 22634EL  26070.40833333  .00000000  00000+0  00000-0 0  9997
2 17533  45.0000 192.0000 0000000   0.0000 282.0000 13.89609395    18
CTC1_L_00171017-03
1 17534U 24266OW  26070.40833333  .00000000  00000+0  00000-0 0  9991
2 17534  45.0000 192.0000 0000000   0.0000  12.0000 13.89609395    10
CTC1_L_00171017-04
1 17535U 23703NY  26070.40833333  .00000000  00000+0  00000-0 0  9997
2 17535  45.0000 192.0000 0000000   0.0000 102.0000 13.89609395    11
CTC1_L_00171018-01
1 17536U 25900AF  26070.40833333  .00000000  00000+0  00000-0 0  9999
2 17536  45.0000 204.0000 0000000   0.0000 204.0000 13.89609395    19
CTC1_L_00171018-02
1 17537U 22423TR  26070.40833333  .00000000  00000+0  00000-0 0  9997
2 17537  45.0000 204.0000 0000000   0.0000 294.0000 13.89609395    19
CTC1_L_00171018-03
1 17538U 22150ST  26070.40833333  .00000000  00000+0  00000-0 0  9995
2 17538  45.0000 204.0000 0000000   0.0000  24.0000 13.89609395    11
CTC1_L_00171018-04
1 17539U 26731V   26070.40833333  .00000000  00000+0  00000-0 0  9995
2 17539  45.0000 204.0000 0000000   0.0000 114.0000 13.89609395    12
CTC1_L_00171019-01
1 17540U 25241GR  26070.40833333  .00000000  00000+0  00000-0 0  9992
2 17540  45.0000 216.0000 0000000   0.0000 216.0000 13.89609395    10
CTC1_L_00171019-02
1 17541U 22811UK  26070.40833333  .00000000  00000+0  00000-0 0  9993
2 17541  45.0000 216.0000 0000000   0.0000 306.0000 13.89609395    11
CTC1_L_00171019-03
1 17542U 24201SO  26070.40833333  .00000000  00000+0  00000-0 0  9999
2 17542  45.0000 216.0000 0000000   0.0000  36.0000 13.89609395    12
CTC1_L_00171019-04
1 17543U 23492DS  26070.40833333  .00000000  00000+0  00000-0 0  9991
2 17543  45.0000 216.0000 0000000   0.0000 126.0000 13.89609395    13
CTC1_L_00171020-01
1 17544U 26836LM  26070.40833333  .00000000  00000+0  00000-0 0  9997
2 17544  45.0000 228.0000 0000000   0.0000 228.0000 13.89609395    10
CTC1_L_00171020-02
1 17545U 24570YC  26070.40833333  .00000000  00000+0  00000-0 0  9991
2 17545  45.0000 228.0000 0000000   0.0000 318.0000 13.89609395    11
CTC1_L_00171020-03
1 17546U 24526VN  26070.40833333  .00000000  00000+0  00000-0 0  9993
2 17546  45.0000 228.0000 0000000   0.0000  48.0000 13.89609395    12
CTC1_L_00171020-04
1 17547U 23846BM  26070.40833333  .00000000  00000+0  00000-0 0  9998
2 17547  45.0000 228.0000 0000000   0.0000 138.0000 13.89609395    13
CTC1_L_00171021-01
1 17548U 24660OP  26070.40833333  .00000000  00000+0  00000-0 0  9994
2 17548  45.0000 240.0000 0000000   0.0000 240.0000 13.89609395    12
CTC1_L_00171021-02
1 17549U 26404JX  26070.40833333  .00000000  00000+0  00000-0 0  9993
2 17549  45.0000 240.0000 0000000   0.0000 330.0000 13.89609395    13
CTC1_L_00171021-03
1 17550U 24353U   26070.40833333  .00000000  00000+0  00000-0 0  9996
2 17550  45.0000 240.0000 0000000   0.0000  60.0000 13.89609395    15
CTC1_L_00171021-04
1 17551U 22996JM  26070.40833333  .00000000  00000+0  00000-0 0  9998
2 17551  45.0000 240.0000 0000000   0.0000 150.0000 13.89609395    16
CTC1_L_00171022-01
1 17552U 26190LG  26070.40833333  .00000000  00000+0  00000-0 0  9999
2 17552  45.0000 252.0000 0000000   0.0000 252.0000 13.89609395    13
CTC1_L_00171022-02
1 17553U 26940FP  26070.40833333  .00000000  00000+0  00000-0 0  9993
2 17553  45.0000 252.0000 0000000   0.0000 342.0000 13.89609395    14
CTC1_L_00171022-03
1 17554U 24489LX  26070.40833333  .00000000  00000+0  00000-0 0  9990
2 17554  45.0000 252.0000 0000000   0.0000  72.0000 13.89609395    15
CTC1_L_00171022-04
1 17555U 22369QP  26070.40833333  .00000000  00000+0  00000-0 0  9996
2 17555  45.0000 252.0000 0000000   0.0000 162.0000 13.89609395    16
CTC1_L_00171023-01
1 17556U 24772QA  26070.40833333  .00000000  00000+0  00000-0 0  9997
2 17556  45.0000 264.0000 0000000   0.0000 264.0000 13.89609395    13
CTC1_L_00171023-02
1 17557U 25259QW  26070.40833333  .00000000  00000+0  00000-0 0  9999
2 17557  45.0000 264.0000 0000000   0.0000 354.0000 13.89609395    14
CTC1_L_00171023-03
1 17558U 26812NV  26070.40833333  .00000000  00000+0  00000-0 0  9996
2 17558  45.0000 264.0000 0000000   0.0000  84.0000 13.89609395    15
CTC1_L_00171023-04
1 17559U 25843SK  26070.40833333  .00000000  00000+0  00000-0 0  9990
2 17559  45.0000 264.0000 0000000   0.0000 174.0000 13.89609395    16
CTC1_L_00171024-01
1 17560U 23765YB  26070.40833333  .00000000  00000+0  00000-0 0  9993
2 17560  45.0000 276.0000 0000000   0.0000 276.0000 13.89609395    14
CTC1_L_00171024-02
1 17561U 22803YH  26070.40833333  .00000000  00000+0  00000-0 0  9996
2 17561  45.0000 276.0000 0000000   0.0000   6.0000 13.89609395    16
CTC1_L_00171024-03
1 17562U 26806SC  26070.40833333  .00000000  00000+0  00000-0 0  9994
2 17562  45.0000 276.0000 0000000   0.0000  96.0000 13.89609395    16
CTC1_L_00171024-04
1 17563U 25425JZ  26070.40833333  .00000000  00000+0  00000-0 0  9991
2 17563  45.0000 276.0000 0000000   0.0000 186.0000 13.89609395    17
CTC1_L_00171025-01
1 17564U 25676WZ  26070.40833333  .00000000  00000+0  00000-0 0  9990
2 17564  45.0000 288.0000 0000000   0.0000 288.0000 13.89609395    14
CTC1_L_00171025-02
1 17565U 22943FG  26070.40833333  .00000000  00000+0  00000-0 0  9995
2 17565  45.0000 288.0000 0000000   0.0000  18.0000 13.89609395    16
CTC1_L_00171025-03
1 17566U 24348HC  26070.40833333  .00000000  00000+0  00000-0 0  9997
2 17566  45.0000 288.0000 0000000   0.0000 108.0000 13.89609395    17
CTC1_L_00171025-04
1 17567U 25023NL  26070.40833333  .00000000  00000+0  00000-0 0  9999
2 17567  45.0000 288.0000 0000000   0.0000 198.0000 13.89609395    17
CTC1_L_00171026-01
1 17568U 24240JX  26070.40833333  .00000000  00000+0  00000-0 0  9990
2 17568  45.0000 300.0000 0000000   0.0000 300.0000 13.89609395    18
CTC1_L_00171026-02
1 17569U 22430WA  26070.40833333  .00000000  00000+0  00000-0 0  9990
2 17569  45.0000 300.0000 0000000   0.0000  30.0000 13.89609395    19
CTC1_L_00171026-03
1 17570U 26132JD  26070.40833333  .00000000  00000+0  00000-0 0  9995
2 17570  45.0000 300.0000 0000000   0.0000 120.0000 13.89609395    11
CTC1_L_00171026-04
1 17571U 24106DQ  26070.40833333  .00000000  00000+0  00000-0 0  9995
2 17571  45.0000 300.0000 0000000   0.0000 210.0000 13.89609395    12
CTC1_L_00171027-01
1 17572U 25889QG  26070.40833333  .00000000  00000+0  00000-0 0  9995
2 17572  45.0000 312.0000 0000000   0.0000 312.0000 13.89609395    19
CTC1_L_00171027-02
1 17573U 24260KL  26070.40833333  .00000000  00000+0  00000-0 0  9998
2 17573  45.0000 312.0000 0000000   0.0000  42.0000 13.89609395    10
CTC1_L_00171027-03
1 17574U 23510KZ  26070.40833333  .00000000  00000+0  00000-0 0  9996
2 17574  45.0000 312.0000 0000000   0.0000 132.0000 13.89609395    11
CTC1_L_00171027-04
1 17575U 23618AZ  26070.40833333  .00000000  00000+0  00000-0 0  9996
2 17575  45.0000 312.0000 0000000   0.0000 222.0000 13.89609395    12
CTC1_L_00171028-01
1 17576U 22574VE  26070.40833333  .00000000  00000+0  00000-0 0  9997
2 17576  45.0000 324.0000 0000000   0.0000 324.0000 13.89609395    19
CTC1_L_00171028-02
1 17577U 26338ZH  26070.40833333  .00000000  00000+0  00000-0 0  9990
2 17577  45.0000 324.0000 0000000   0.0000  54.0000 13.89609395    10
CTC1_L_00171028-03
1 17578U 24339JT  26070.40833333  .00000000  00000+0  00000-0 0  9990
2 17578  45.0000 324.0000 0000000   0.0000 144.0000 13.89609395    11
CTC1_L_00171028-04
1 17579U 22104BV  26070.40833333  .00000000  00000+0  00000-0 0  9999
2 17579  45.0000 324.0000 0000000   0.0000 234.0000 13.89609395    12
CTC1_L_00171029-01
1 17580U 26316LD  26070.40833333  .00000000  00000+0  00000-0 0  9990
2 17580  45.0000 336.0000 0000000   0.0000 336.0000 13.89609395    10
CTC1_L_00171029-02
1 17581U 26254DG  26070.40833333  .00000000  00000+0  00000-0 0  9992
2 17581  45.0000 336.0000 0000000   0.0000  66.0000 13.89609395    11
CTC1_L_00171029-03
1 17582U 25407WJ  26070.40833333  .00000000  00000+0  00000-0 0  9992
2 17582  45.0000 336.0000 0000000   0.0000 156.0000 13.89609395    12
CTC1_L_00171029-04
1 17583U 26489UX  26070.40833333  .00000000  00000+0  00000-0 0  9994
2 17583  45.0000 336.0000 0000000   0.0000 246.0000 13.89609395    13
CTC1_L_00171030-01
1 17584U 23231OT  26070.40833333  .00000000  00000+0  00000-0 0  9997
2 17584  45.0000 348.0000 0000000   0.0000 348.0000 13.89609395    10
CTC1_L_00171030-02
1 17585U 24991OJ  26070.40833333  .00000000  00000+0  00000-0 0  9992
2 17585  45.0000 348.0000 0000000   0.0000  78.0000 13.89609395    11
CTC1_L_00171030-03
1 17586U 26360HR  26070.40833333  .00000000  00000+0  00000-0 0  9995
2 17586  45.0000 348.0000 0000000   0.0000 168.0000 13.89609395    12
CTC1_L_00171030-04
1 17587U 23181UZ  26070.40833333  .00000000  00000+0  00000-0 0  9994
2 17587  45.0000 348.0000 0000000   0.0000 258.0000 13.89609395    13
